LANDSAT 8               
1 39084U 13008A   20143.16653548  .00000018  00000-0  14186-4 0  9997
2 39084  98.2265 213.1901 0001190  77.0785 283.0558 14.57108158386873
